ORBCOMM FM24            
1 25478U 98053D   24346.68822739  .00002323  00000+0  82113-3 0  9992
2 25478  45.0080  77.5274 0001819 288.2119  71.8531 14.37154772370463
ORBCOMM FM25            
1 25479U 98053E   24346.93494258  .00002627  00000+0  92257-3 0  9999
2 25479  45.0073  74.6136 0002605 354.3857   5.6962 14.37141340370795
ORBCOMM FM26            
1 25480U 98053F   24346.69262256  .00002173  00000+0  78370-3 0  9991
2 25480  45.0070  70.9584 0003896  36.0154 324.0956 14.36344039370685
ORBCOMM FM27            
1 25481U 98053G   24346.64649484  .00002850  00000+0  99685-3 0  9993
2 25481  45.0056  76.2297 0002103 242.5775 117.4860 14.37138131370686
ORBCOMM FM28            
1 25482U 98053H   24347.06269876  .00002092  00000+0  74001-3 0  9997
2 25482  45.0066  12.1013 0002002  55.5063 304.5974 14.37435361371594
ORBCOMM FM30            
1 25980U 99065A   24346.91164868  .00001710  00000+0  62509-3 0  9998
2 25980  45.0308 255.6589 0005369 144.6828 215.4376 14.36504396307517
ORBCOMM FM31            
1 25981U 99065B   24347.08809530  .00001653  00000+0  60619-3 0  9996
2 25981  45.0220 248.3878 0002730 173.3251 186.7634 14.36475057308068
ORBCOMM FM32            
1 25982U 99065C   24346.87007069  .00001836  00000+0  68084-3 0  9997
2 25982  45.0151 264.7273 0004534 174.7493 185.3403 14.35507721307678
