<?xml version="1.0" encoding="UTF-8"?>
<ndm xmlns:xsi="http://www.w3.org/2001/XMLSchema-instance" xsi:noNamespaceSchemaLocation="https://sanaregistry.org/r/ndmxml_unqualified/ndmxml-2.0.0-master-2.0.xsd">
<omm id="CCSDS_OMM_VERS" version="2.0">
<header><CREATION_DATE/><ORIGINATOR/></header><body><segment><metadata><OBJECT_NAME>ORBCOMM FM24</OBJECT_NAME><OBJECT_ID>1998-053D</OBJECT_ID><CENTER_NAME>EARTH</CENTER_NAME><REF_FRAME>TEME</REF_FRAME><TIME_SYSTEM>UTC</TIME_SYSTEM><MEAN_ELEMENT_THEORY>SGP4</MEAN_ELEMENT_THEORY></metadata><data><meanElements><EPOCH>2024-12-11T16:31:02.846496</EPOCH><MEAN_MOTION>14.37154772</MEAN_MOTION><ECCENTRICITY>.0001819</ECCENTRICITY><INCLINATION>45.0080</INCLINATION><RA_OF_ASC_NODE>77.5274</RA_OF_ASC_NODE><ARG_OF_PERICENTER>288.2119</ARG_OF_PERICENTER><MEAN_ANOMALY>71.8531</MEAN_ANOMALY></meanElements><tleParameters><EPHEMERIS_TYPE>0</EPHEMERIS_TYPE><CLASSIFICATION_TYPE>U</CLASSIFICATION_TYPE><NORAD_CAT_ID>25478</NORAD_CAT_ID><ELEMENT_SET_NO>999</ELEMENT_SET_NO><REV_AT_EPOCH>37046</REV_AT_EPOCH><BSTAR>.82113E-3</BSTAR><MEAN_MOTION_DOT>.2323E-4</MEAN_MOTION_DOT><MEAN_MOTION_DDOT>0</MEAN_MOTION_DDOT></tleParameters></data></segment></body></omm>
<omm id="CCSDS_OMM_VERS" version="2.0">
<header><CREATION_DATE/><ORIGINATOR/></header><body><segment><metadata><OBJECT_NAME>ORBCOMM FM25</OBJECT_NAME><OBJECT_ID>1998-053E</OBJECT_ID><CENTER_NAME>EARTH</CENTER_NAME><REF_FRAME>TEME</REF_FRAME><TIME_SYSTEM>UTC</TIME_SYSTEM><MEAN_ELEMENT_THEORY>SGP4</MEAN_ELEMENT_THEORY></metadata><data><meanElements><EPOCH>2024-12-11T22:26:19.038912</EPOCH><MEAN_MOTION>14.37141340</MEAN_MOTION><ECCENTRICITY>.0002605</ECCENTRICITY><INCLINATION>45.0073</INCLINATION><RA_OF_ASC_NODE>74.6136</RA_OF_ASC_NODE><ARG_OF_PERICENTER>354.3857</ARG_OF_PERICENTER><MEAN_ANOMALY>5.6962</MEAN_ANOMALY></meanElements><tleParameters><EPHEMERIS_TYPE>0</EPHEMERIS_TYPE><CLASSIFICATION_TYPE>U</CLASSIFICATION_TYPE><NORAD_CAT_ID>25479</NORAD_CAT_ID><ELEMENT_SET_NO>999</ELEMENT_SET_NO><REV_AT_EPOCH>37079</REV_AT_EPOCH><BSTAR>.92257E-3</BSTAR><MEAN_MOTION_DOT>.2627E-4</MEAN_MOTION_DOT><MEAN_MOTION_DDOT>0</MEAN_MOTION_DDOT></tleParameters></data></segment></body></omm>
<omm id="CCSDS_OMM_VERS" version="2.0">
<header><CREATION_DATE/><ORIGINATOR/></header><body><segment><metadata><OBJECT_NAME>ORBCOMM FM26</OBJECT_NAME><OBJECT_ID>1998-053F</OBJECT_ID><CENTER_NAME>EARTH</CENTER_NAME><REF_FRAME>TEME</REF_FRAME><TIME_SYSTEM>UTC</TIME_SYSTEM><MEAN_ELEMENT_THEORY>SGP4</MEAN_ELEMENT_THEORY></metadata><data><meanElements><EPOCH>2024-12-11T16:37:22.589184</EPOCH><MEAN_MOTION>14.36344039</MEAN_MOTION><ECCENTRICITY>.0003896</ECCENTRICITY><INCLINATION>45.0070</INCLINATION><RA_OF_ASC_NODE>70.9584</RA_OF_ASC_NODE><ARG_OF_PERICENTER>36.0154</ARG_OF_PERICENTER><MEAN_ANOMALY>324.0956</MEAN_ANOMALY></meanElements><tleParameters><EPHEMERIS_TYPE>0</EPHEMERIS_TYPE><CLASSIFICATION_TYPE>U</CLASSIFICATION_TYPE><NORAD_CAT_ID>25480</NORAD_CAT_ID><ELEMENT_SET_NO>999</ELEMENT_SET_NO><REV_AT_EPOCH>37068</REV_AT_EPOCH><BSTAR>.7837E-3</BSTAR><MEAN_MOTION_DOT>.2173E-4</MEAN_MOTION_DOT><MEAN_MOTION_DDOT>0</MEAN_MOTION_DDOT></tleParameters></data></segment></body></omm>
<omm id="CCSDS_OMM_VERS" version="2.0">
<header><CREATION_DATE/><ORIGINATOR/></header><body><segment><metadata><OBJECT_NAME>ORBCOMM FM27</OBJECT_NAME><OBJECT_ID>1998-053G</OBJECT_ID><CENTER_NAME>EARTH</CENTER_NAME><REF_FRAME>TEME</REF_FRAME><TIME_SYSTEM>UTC</TIME_SYSTEM><MEAN_ELEMENT_THEORY>SGP4</MEAN_ELEMENT_THEORY></metadata><data><meanElements><EPOCH>2024-12-11T15:30:57.154176</EPOCH><MEAN_MOTION>14.37138131</MEAN_MOTION><ECCENTRICITY>.0002103</ECCENTRICITY><INCLINATION>45.0056</INCLINATION><RA_OF_ASC_NODE>76.2297</RA_OF_ASC_NODE><ARG_OF_PERICENTER>242.5775</ARG_OF_PERICENTER><MEAN_ANOMALY>117.4860</MEAN_ANOMALY></meanElements><tleParameters><EPHEMERIS_TYPE>0</EPHEMERIS_TYPE><CLASSIFICATION_TYPE>U</CLASSIFICATION_TYPE><NORAD_CAT_ID>25481</NORAD_CAT_ID><ELEMENT_SET_NO>999</ELEMENT_SET_NO><REV_AT_EPOCH>37068</REV_AT_EPOCH><BSTAR>.99685E-3</BSTAR><MEAN_MOTION_DOT>.285E-4</MEAN_MOTION_DOT><MEAN_MOTION_DDOT>0</MEAN_MOTION_DDOT></tleParameters></data></segment></body></omm>
<omm id="CCSDS_OMM_VERS" version="2.0">
<header><CREATION_DATE/><ORIGINATOR/></header><body><segment><metadata><OBJECT_NAME>ORBCOMM FM28</OBJECT_NAME><OBJECT_ID>1998-053H</OBJECT_ID><CENTER_NAME>EARTH</CENTER_NAME><REF_FRAME>TEME</REF_FRAME><TIME_SYSTEM>UTC</TIME_SYSTEM><MEAN_ELEMENT_THEORY>SGP4</MEAN_ELEMENT_THEORY></metadata><data><meanElements><EPOCH>2024-12-12T01:30:17.172864</EPOCH><MEAN_MOTION>14.37435361</MEAN_MOTION><ECCENTRICITY>.0002002</ECCENTRICITY><INCLINATION>45.0066</INCLINATION><RA_OF_ASC_NODE>12.1013</RA_OF_ASC_NODE><ARG_OF_PERICENTER>55.5063</ARG_OF_PERICENTER><MEAN_ANOMALY>304.5974</MEAN_ANOMALY></meanElements><tleParameters><EPHEMERIS_TYPE>0</EPHEMERIS_TYPE><CLASSIFICATION_TYPE>U</CLASSIFICATION_TYPE><NORAD_CAT_ID>25482</NORAD_CAT_ID><ELEMENT_SET_NO>999</ELEMENT_SET_NO><REV_AT_EPOCH>37159</REV_AT_EPOCH><BSTAR>.74001E-3</BSTAR><MEAN_MOTION_DOT>.2092E-4</MEAN_MOTION_DOT><MEAN_MOTION_DDOT>0</MEAN_MOTION_DDOT></tleParameters></data></segment></body></omm>
<omm id="CCSDS_OMM_VERS" version="2.0">
<header><CREATION_DATE/><ORIGINATOR/></header><body><segment><metadata><OBJECT_NAME>ORBCOMM FM30</OBJECT_NAME><OBJECT_ID>1999-065A</OBJECT_ID><CENTER_NAME>EARTH</CENTER_NAME><REF_FRAME>TEME</REF_FRAME><TIME_SYSTEM>UTC</TIME_SYSTEM><MEAN_ELEMENT_THEORY>SGP4</MEAN_ELEMENT_THEORY></metadata><data><meanElements><EPOCH>2024-12-11T21:52:46.445952</EPOCH><MEAN_MOTION>14.36504396</MEAN_MOTION><ECCENTRICITY>.0005369</ECCENTRICITY><INCLINATION>45.0308</INCLINATION><RA_OF_ASC_NODE>255.6589</RA_OF_ASC_NODE><ARG_OF_PERICENTER>144.6828</ARG_OF_PERICENTER><MEAN_ANOMALY>215.4376</MEAN_ANOMALY></meanElements><tleParameters><EPHEMERIS_TYPE>0</EPHEMERIS_TYPE><CLASSIFICATION_TYPE>U</CLASSIFICATION_TYPE><NORAD_CAT_ID>25980</NORAD_CAT_ID><ELEMENT_SET_NO>999</ELEMENT_SET_NO><REV_AT_EPOCH>30751</REV_AT_EPOCH><BSTAR>.62509E-3</BSTAR><MEAN_MOTION_DOT>.171E-4</MEAN_MOTION_DOT><MEAN_MOTION_DDOT>0</MEAN_MOTION_DDOT></tleParameters></data></segment></body></omm>
<omm id="CCSDS_OMM_VERS" version="2.0">
<header><CREATION_DATE/><ORIGINATOR/></header><body><segment><metadata><OBJECT_NAME>ORBCOMM FM31</OBJECT_NAME><OBJECT_ID>1999-065B</OBJECT_ID><CENTER_NAME>EARTH</CENTER_NAME><REF_FRAME>TEME</REF_FRAME><TIME_SYSTEM>UTC</TIME_SYSTEM><MEAN_ELEMENT_THEORY>SGP4</MEAN_ELEMENT_THEORY></metadata><data><meanElements><EPOCH>2024-12-12T02:06:51.433920</EPOCH><MEAN_MOTION>14.36475057</MEAN_MOTION><ECCENTRICITY>.000273</ECCENTRICITY><INCLINATION>45.0220</INCLINATION><RA_OF_ASC_NODE>248.3878</RA_OF_ASC_NODE><ARG_OF_PERICENTER>173.3251</ARG_OF_PERICENTER><MEAN_ANOMALY>186.7634</MEAN_ANOMALY></meanElements><tleParameters><EPHEMERIS_TYPE>0</EPHEMERIS_TYPE><CLASSIFICATION_TYPE>U</CLASSIFICATION_TYPE><NORAD_CAT_ID>25981</NORAD_CAT_ID><ELEMENT_SET_NO>999</ELEMENT_SET_NO><REV_AT_EPOCH>30806</REV_AT_EPOCH><BSTAR>.60619E-3</BSTAR><MEAN_MOTION_DOT>.1653E-4</MEAN_MOTION_DOT><MEAN_MOTION_DDOT>0</MEAN_MOTION_DDOT></tleParameters></data></segment></body></omm>
<omm id="CCSDS_OMM_VERS" version="2.0">
<header><CREATION_DATE/><ORIGINATOR/></header><body><segment><metadata><OBJECT_NAME>ORBCOMM FM32</OBJECT_NAME><OBJECT_ID>1999-065C</OBJECT_ID><CENTER_NAME>EARTH</CENTER_NAME><REF_FRAME>TEME</REF_FRAME><TIME_SYSTEM>UTC</TIME_SYSTEM><MEAN_ELEMENT_THEORY>SGP4</MEAN_ELEMENT_THEORY></metadata><data><meanElements><EPOCH>2024-12-11T20:52:54.107616</EPOCH><MEAN_MOTION>14.35507721</MEAN_MOTION><ECCENTRICITY>.0004534</ECCENTRICITY><INCLINATION>45.0151</INCLINATION><RA_OF_ASC_NODE>264.7273</RA_OF_ASC_NODE><ARG_OF_PERICENTER>174.7493</ARG_OF_PERICENTER><MEAN_ANOMALY>185.3403</MEAN_ANOMALY></meanElements><tleParameters><EPHEMERIS_TYPE>0</EPHEMERIS_TYPE><CLASSIFICATION_TYPE>U</CLASSIFICATION_TYPE><NORAD_CAT_ID>25982</NORAD_CAT_ID><ELEMENT_SET_NO>999</ELEMENT_SET_NO><REV_AT_EPOCH>30767</REV_AT_EPOCH><BSTAR>.68084E-3</BSTAR><MEAN_MOTION_DOT>.1836E-4</MEAN_MOTION_DOT><MEAN_MOTION_DDOT>0</MEAN_MOTION_DDOT></tleParameters></data></segment></body></omm>

</ndm>
